OBJECT_NAME,OBJECT_ID,EPOCH,MEAN_MOTION,ECCENTRICITY,INCLINATION,RA_OF_ASC_NODE,ARG_OF_PERICENTER,MEAN_ANOMALY,EPHEMERIS_TYPE,CLASSIFICATION_TYPE,NORAD_CAT_ID,ELEMENT_SET_NO,REV_AT_EPOCH,BSTAR,MEAN_MOTION_DOT,MEAN_MOTION_DDOT
ASNARO-2,2018-007A,2026-05-12T13:28:58.409760,15.22407067,.0001811,97.3990,140.0427,88.4933,271.6510,0,U,43152,999,46199,.25736881E-3,.5878E-4,0
JILIN-1 07,2018-008E,2026-05-12T14:47:28.517856,15.34121532,.00085463,97.1798,153.5066,172.5085,187.6288,0,U,43159,999,45954,.17234078E-3,.562E-4,0
JILIN-1 08,2018-008F,2026-05-12T14:16:44.099904,15.33236712,.00058876,97.1827,152.8365,182.5520,177.5694,0,U,43160,999,45949,.16542165E-3,.5238E-4,0
LEMUR-2-KADI,2018-014E,2026-05-12T07:17:10.891392,15.84560105,.00052945,97.4493,61.4464,104.7597,255.4260,0,U,43184,999,45538,.1077451E-2,.252857E-2,0
S-NET D,2018-014G,2026-05-12T07:16:02.896320,15.16325686,.00095032,97.5391,37.3224,134.0971,226.1045,0,U,43186,999,45332,.15435674E-3,.2927E-4,0
S-NET B,2018-014H,2026-05-12T10:41:35.385216,15.16297031,.00102224,97.5395,37.4497,130.2698,229.9430,0,U,43187,999,45334,.15055568E-3,.2851E-4,0
S-NET A,2018-014J,2026-05-12T05:39:39.826368,15.16332122,.00101064,97.5406,37.4434,131.3910,228.8193,0,U,43188,999,45331,.15413732E-3,.2924E-4,0
S-NET C,2018-014K,2026-05-12T12:21:55.366560,15.16288554,.00116227,97.5424,37.7903,125.0876,235.1448,0,U,43189,999,45190,.15104067E-3,.2861E-4,0
PAZ,2018-020A,2026-05-12T14:29:45.665664,15.19148740,.00017456,97.4459,140.4949,87.0182,273.1252,0,U,43215,999,45560,.59032231E-4,.1173E-4,0
GOES 17,2018-022A,2026-05-12T14:09:41.893344,1.00271829,.00006213,0.8465,86.1942,326.5085,300.6047,0,U,43226,999,3006,0,-.17E-5,0
LKW-4,2018-025A,2026-05-12T08:51:10.629792,15.59512573,.00032152,97.6330,300.5241,86.9071,273.2553,0,U,43236,999,45444,.34793204E-3,.2753E-3,0
ZHUHAI-1 OVS-02,2018-040B,2026-05-12T14:18:52.321824,15.24539654,.00048382,97.0415,151.9464,50.6797,309.4870,0,U,43440,999,44729,.19506002E-3,.4736E-4,0
ZHUHAI-1 OHS-02,2018-040C,2026-05-12T14:25:23.322432,15.25351362,.00093168,97.0403,158.8549,10.7888,349.3549,0,U,43441,999,10885,.1987151E-3,.4949E-4,0
GAOFEN-6,2018-048A,2026-05-12T15:07:46.892640,14.76589840,.00106673,97.7775,196.6133,293.9385,66.0708,0,U,43484,999,42814,.94552467E-4,.611E-5,0
LUOJIA-1 01,2018-048B,2026-05-12T15:35:34.649376,14.87150481,.00076772,97.8100,211.4110,232.6624,127.3893,0,U,43485,999,42893,.2094892E-3,.1829E-4,0
PAKTES 1A,2018-056A,2026-05-12T15:01:20.312256,14.98900688,.00214492,98.1218,287.6107,226.9605,132.9820,0,U,43529,999,42659,.13291256E-3,.1547E-4,0
PRSS-1,2018-056B,2026-05-12T14:34:07.898304,14.81930937,.00017531,97.7830,201.4604,93.7548,266.3865,0,U,43530,999,42316,.77815538E-4,.565E-5,0
HAIYANG-1C,2018-068A,2026-05-12T14:15:42.552864,14.34168712,.00104697,98.5196,205.4144,193.9723,166.1173,0,U,43609,999,40198,.13932756E-3,.347E-5,0
SSTL S1-4,2018-071A,2026-05-12T15:25:26.835744,14.96198353,.00011396,97.5075,5.7265,61.8279,298.3058,0,U,43618,999,41762,.17211637E-4,.14E-5,0
HAIYANG-2B,2018-081A,2026-05-12T14:51:23.898240,13.79306557,.00017241,99.3304,141.9112,51.9010,308.2297,0,U,43655,999,38002,.23613236E-3,.198E-5,0
CFOSAT,2018-083A,2026-05-12T14:13:29.170272,15.16476146,.00019132,97.3616,138.1708,61.8617,298.2810,0,U,43662,999,41704,.11629791E-3,.2199E-4,0
TEN-KOH,2018-084G,2026-05-12T12:03:47.238912,15.02776129,.00081701,98.0767,323.3683,233.1390,126.9085,0,U,43677,999,41080,.56190531E-4,.685E-5,0
DIWATA-2B,2018-084H,2026-05-12T14:57:16.296192,15.00271848,.00119986,98.1104,327.3077,293.9289,66.0676,0,U,43678,999,41088,.14233404E-3,.1719E-4,0
STARS-AO,2018-084J,2026-05-12T09:14:09.699936,15.16646133,.00007816,98.0547,344.1544,319.5714,40.5459,0,U,43679,999,41204,.19552439E-3,.3749E-4,0
AUTCUBE 2,2018-084K,2026-05-12T12:16:55.243200,15.09838183,.00095357,98.0744,336.7966,156.1813,203.9858,0,U,43681,999,41154,.17724944E-3,.2798E-4,0
METOP-C,2018-087A,2026-05-12T14:13:26.516064,14.21502019,.00002564,98.6663,192.8427,108.6021,251.5184,0,U,43689,999,38977,.41630743E-4,.48E-6,0
ES'HAIL 2,2018-090A,2026-05-12T14:42:31.247424,1.00274095,.00015895,0.0157,269.2822,176.6449,30.9281,0,U,43700,999,2732,0,.157E-5,0
MOHAMMED VI-B,2018-095A,2026-05-12T14:42:00.158112,14.77069034,.00013025,97.9561,205.4253,76.2992,283.8363,0,U,43717,999,40293,.34615698E-4,.194E-5,0
HYSIS,2018-096A,2026-05-12T14:48:22.552416,14.78620095,.0000807,97.9852,199.6403,98.7658,261.3645,0,U,43719,999,40216,.16096601E-3,.1127E-4,0
