ASNARO-2                
1 43152U 18007A   26132.56178715  .00005878  00000+0  25737-3 0  9999
2 43152  97.3990 140.0427 0001811  88.4933 271.6510 15.22407067461993
JILIN-1 07              
1 43159U 18008E   26132.61630229  .00005620  00000+0  17234-3 0  9994
2 43159  97.1798 153.5066 0008546 172.5085 187.6288 15.34121532459546
JILIN-1 08              
1 43160U 18008F   26132.59495486  .00005238  00000+0  16542-3 0  9993
2 43160  97.1827 152.8365 0005887 182.5520 177.5694 15.33236712459494
LEMUR-2-KADI            
1 43184U 18014E   26132.30359828  .00252857  00000+0  10775-2 0  9996
2 43184  97.4493  61.4464 0005294 104.7597 255.4260 15.84560105455380
S-NET D                 
1 43186U 18014G   26132.30281130  .00002927  00000+0  15436-3 0  9999
2 43186  97.5391  37.3224 0009503 134.0971 226.1045 15.16325686453321
S-NET B                 
1 43187U 18014H   26132.44554844  .00002851  00000+0  15056-3 0  9994
2 43187  97.5395  37.4497 0010222 130.2698 229.9430 15.16297031453346
S-NET A                 
1 43188U 18014J   26132.23587762  .00002924  00000+0  15414-3 0  9996
2 43188  97.5406  37.4434 0010106 131.3910 228.8193 15.16332122453313
S-NET C                 
1 43189U 18014K   26132.51522415  .00002861  00000+0  15104-3 0  9998
2 43189  97.5424  37.7903 0011622 125.0876 235.1448 15.16288554451909
PAZ                     
1 43215U 18020A   26132.60400076  .00001173  00000+0  59032-4 0  9997
2 43215  97.4459 140.4949 0001745  87.0182 273.1252 15.19148740455601
GOES 17                 
1 43226U 18022A   26132.59006821 -.00000170  00000+0  00000+0 0  9992
2 43226   0.8465  86.1942 0000621 326.5085 300.6047  1.00271829 30069
LKW-4                   
1 43236U 18025A   26132.36887303  .00027530  00000+0  34793-3 0  9991
2 43236  97.6330 300.5241 0003215  86.9071 273.2553 15.59512573454446
ZHUHAI-1 OVS-02         
1 43440U 18040B   26132.59643891  .00004736  00000+0  19506-3 0  9990
2 43440  97.0415 151.9464 0004838  50.6797 309.4870 15.24539654447291
ZHUHAI-1 OHS-02         
1 43441U 18040C   26132.60096438  .00004949  00000+0  19872-3 0  9994
2 43441  97.0403 158.8549 0009316  10.7888 349.3549 15.25351362108854
GAOFEN-6                
1 43484U 18048A   26132.63040385  .00000611  00000+0  94552-4 0  9993
2 43484  97.7775 196.6133 0010667 293.9385  66.0708 14.76589840428143
LUOJIA-1 01             
1 43485U 18048B   26132.64970659  .00001829  00000+0  20949-3 0  9991
2 43485  97.8100 211.4110 0007677 232.6624 127.3893 14.87150481428931
PAKTES 1A               
1 43529U 18056A   26132.62592954  .00001547  00000+0  13291-3 0  9994
2 43529  98.1218 287.6107 0021449 226.9605 132.9820 14.98900688426599
PRSS-1                  
1 43530U 18056B   26132.60703586  .00000565  00000+0  77816-4 0  9992
2 43530  97.7830 201.4604 0001753  93.7548 266.3865 14.81930937423167
HAIYANG-1C              
1 43609U 18068A   26132.59424251  .00000347  00000+0  13933-3 0  9996
2 43609  98.5196 205.4144 0010469 193.9723 166.1173 14.34168712401980
SSTL S1-4               
1 43618U 18071A   26132.64267171  .00000140  00000+0  17212-4 0  9998
2 43618  97.5075   5.7265 0001139  61.8279 298.3058 14.96198353417623
HAIYANG-2B              
1 43655U 18081A   26132.61902660  .00000198  00000+0  23613-3 0  9990
2 43655  99.3304 141.9112 0001724  51.9010 308.2297 13.79306557380022
CFOSAT                  
1 43662U 18083A   26132.59269873  .00002199  00000+0  11630-3 0  9998
2 43662  97.3616 138.1708 0001913  61.8617 298.2810 15.16476146417043
TEN-KOH                 
1 43677U 18084G   26132.50263008  .00000685  00000+0  56191-4 0  9990
2 43677  98.0767 323.3683 0008170 233.1390 126.9085 15.02776129410805
DIWATA-2B               
1 43678U 18084H   26132.62310528  .00001719  00000+0  14233-3 0  9993
2 43678  98.1104 327.3077 0011998 293.9289  66.0676 15.00271848410880
STARS-AO                
1 43679U 18084J   26132.38483449  .00003749  00000+0  19552-3 0  9994
2 43679  98.0547 344.1544 0000781 319.5714  40.5459 15.16646133412049
AUTCUBE 2               
1 43681U 18084K   26132.51175050  .00002798  00000+0  17725-3 0  9991
2 43681  98.0744 336.7966 0009535 156.1813 203.9858 15.09838183411549
METOP-C                 
1 43689U 18087A   26132.59266801  .00000048  00000+0  41631-4 0  9995
2 43689  98.6663 192.8427 0000256 108.6021 251.5184 14.21502019389779
ES'HAIL 2               
1 43700U 18090A   26132.61286166  .00000157  00000+0  00000+0 0  9993
2 43700   0.0157 269.2822 0001589 176.6449  30.9281  1.00274095 27325
MOHAMMED VI-B           
1 43717U 18095A   26132.61250183  .00000194  00000+0  34616-4 0  9992
2 43717  97.9561 205.4253 0001302  76.2992 283.8363 14.77069034402935
HYSIS                   
1 43719U 18096A   26132.61692769  .00001127  00000+0  16097-3 0  9994
2 43719  97.9852 199.6403 0000807  98.7658 261.3645 14.78620095402168
